NORAD_CAT_ID,OBJECT_NAME,OBJECT_TYPE,EPOCH,MEAN_MOTION,ECCENTRICITY,INCLINATION,RA_OF_ASC_NODE,ARG_OF_PERICENTER,MEAN_ANOMALY,BSTAR,MEAN_MOTION_DOT,MEAN_MOTION_DDOT,TLE_LINE0,TLE_LINE1,TLE_LINE2,SEMIMAJOR_AXIS,PERIOD,APOGEE,PERIGEE,DECAYED
56799.0,STARLINK-5953,PAYLOAD,2023-10-07 22:00:00,15.09842762,0.0003203,70.0001,52.7919,279.6754,261.3168,-0.062817,-0.00940564,0.0,0 STARLINK-5953,1 56799U 23078AJ  23280.91667824 -.00940564  00000-0 -62817-1 0  9999,2 56799  70.0001  52.7919 0003203 279.6754 261.3168 15.09842762  6004,6914.817,95.374,538.897,534.467,0.0
56799.0,STARLINK-5953,PAYLOAD,2023-10-08 06:00:00,15.09146333,0.0003135,70.0001,51.9368,272.8201,279.0619,-0.058636,-0.00866716,0.0,0 STARLINK-5953,1 56799U 23078AJ  23281.25001157 -.00866716  00000-0 -58636-1 0  9998,2 56799  70.0001  51.9368 0003135 272.8201 279.0619 15.09146333 20610,6916.944,95.418,540.978,536.641,0.0
56799.0,STARLINK-5953,PAYLOAD,2023-10-08 14:00:01,15.08533093,0.0003193,70.0004,51.0824,275.842,286.1273,-0.064936,-0.00938076,0.0,0 STARLINK-5953,1 56799U 23078AJ  23281.58334491 -.00938076  00000-0 -64936-1 0  9993,2 56799  70.0004  51.0824 0003193 275.8420 286.1273 15.08533093  5824,6918.819,95.457,542.893,538.474,0.0
56799.0,STARLINK-5953,PAYLOAD,2023-10-08 22:00:00,15.07887833,0.0003212,70.0001,50.2289,278.9083,292.3685,-0.066638,-0.00945231,0.0,0 STARLINK-5953,1 56799U 23078AJ  23281.91667824 -.00945231  00000-0 -66638-1 0  9991,2 56799  70.0001  50.2289 0003212 278.9083 292.3685 15.07887833 20712,6920.792,95.498,544.88,540.434,0.0
56799.0,STARLINK-5953,PAYLOAD,2023-10-09 14:00:01,15.0657394,0.0003188,70.0005,48.5247,275.3108,312.2508,-0.068251,-0.00934906,0.0,0 STARLINK-5953,1 56799U 23078AJ  23282.58334491 -.00934906  00000-0 -68251-1 0  9996,2 56799  70.0005  48.5247 0003188 275.3108 312.2508 15.06573940  5989,6924.816,95.581,548.888,544.473,0.0
56799.0,STARLINK-5953,PAYLOAD,2023-10-09 22:00:00,15.05933426,0.0003195,70.0002,47.6738,277.8253,316.6966,-0.070705,-0.00950573,0.0,0 STARLINK-5953,1 56799U 23078AJ  23282.91667824 -.00950573  00000-0 -70705-1 0  9997,2 56799  70.0002  47.6738 0003195 277.8253 316.6966 15.05933426 20865,6926.779,95.622,550.857,546.431,0.0
56799.0,STARLINK-5953,PAYLOAD,2023-10-10 14:00:01,15.04616221,0.0003231,70.0006,45.9748,274.8985,331.2144,-0.07184,-0.00933517,0.0,0 STARLINK-5953,1 56799U 23078AJ  23283.58334491 -.00933517  00000-0 -71840-1 0  9992,2 56799  70.0006  45.9748 0003231 274.8985 331.2144 15.04616221 20963,6930.821,95.705,554.925,550.447,0.0
56799.0,STARLINK-5953,PAYLOAD,2023-10-10 22:00:01,15.0397751,0.0003268,70.0004,45.1264,277.2518,333.5351,-0.074764,-0.00964446,0.0,0 STARLINK-5953,1 56799U 23078AJ  23283.91668981 -.00964446  00000-0 -74764-1 0  9996,2 56799  70.0004  45.1264 0003268 277.2518 333.5351 15.03977510  5918,6932.783,95.746,556.914,552.382,0.0
56799.0,STARLINK-5953,PAYLOAD,2023-10-11 14:00:01,15.02655589,0.0003235,70.0009,43.4326,274.8843,342.7404,-0.075215,-0.00927916,0.0,0 STARLINK-5953,1 56799U 23078AJ  23284.58334491 -.00927916  00000-0 -75215-1 0  9999,2 56799  70.0009  43.4326 0003235 274.8843 342.7404 15.02655589  5909,6936.848,95.83,560.958,556.469,0.0
56799.0,STARLINK-5953,PAYLOAD,2023-10-11 22:00:00,15.02022219,0.0003275,70.0006,42.5869,276.9988,342.8886,-0.07909,-0.00968225,0.0,0 STARLINK-5953,1 56799U 23078AJ  23284.91667824 -.00968225  00000-0 -79090-1 0  9998,2 56799  70.0006  42.5869 0003275 276.9988 342.8886 15.02022219 21164,6938.798,95.871,562.936,558.391,0.0
56799.0,STARLINK-5953,PAYLOAD,2023-10-12 14:00:01,15.00694437,0.0003251,70.0012,40.8983,275.3697,346.7255,-0.07848,-0.00919868,0.0,0 STARLINK-5953,1 56799U 23078AJ  23285.58334491 -.00919868  00000-0 -78480-1 0  9994,2 56799  70.0012  40.8983 0003251 275.3697 346.7255 15.00694437  5714,6942.891,95.956,567.013,562.499,0.0
56799.0,STARLINK-5953,PAYLOAD,2023-10-12 22:00:01,15.00024196,0.0003355,70.0011,40.055,277.479,344.6023,-0.074077,-0.00857741,0.0,0 STARLINK-5953,1 56799U 23078AJ  23285.91668981 -.00857741  00000-0 -74077-1 0  9994,2 56799  70.0011  40.0550 0003355 277.4790 344.6023 15.00024196 21310,6944.959,95.998,569.154,564.494,0.0
56799.0,STARLINK-5953,PAYLOAD,2023-10-13 06:00:02,14.99464886,0.0003395,70.0015,39.213,271.2304,349.9751,-0.051863,-0.00599672,0.0,0 STARLINK-5953,1 56799U 23078AJ  23286.25002315 -.00599672  00000-0 -51863-1 0  9999,2 56799  70.0015  39.2130 0003395 271.2304 349.9751 14.99464886 21367,6946.686,96.034,570.909,566.192,0.0
56799.0,STARLINK-5953,PAYLOAD,2023-10-13 14:00:01,14.98983456,0.0003427,70.0016,38.3714,277.0116,342.7482,-0.069873,-0.00791863,0.0,0 STARLINK-5953,1 56799U 23078AJ  23286.58334491 -.00791863  00000-0 -69873-1 0  9994,2 56799  70.0016  38.3714 0003427 277.0116 342.7482 14.98983456 21413,6948.173,96.065,572.419,567.657,0.0
56799.0,STARLINK-5953,PAYLOAD,2023-10-13 22:00:00,14.98347842,0.0003221,70.0015,37.5305,279.6036,338.0807,-0.0053567,-0.00063464,0.0,0 STARLINK-5953,1 56799U 23078AJ  23286.91667824 -.00063464  00000-0 -53567-2 0  9993,2 56799  70.0015  37.5305 0003221 279.6036 338.0807 14.98347842 21467,6950.138,96.106,574.241,569.764,0.0
56799.0,STARLINK-5953,PAYLOAD,2023-10-14 14:00:01,14.98337266,0.0003154,70.0018,35.8499,278.7962,333.9046,-0.0014796,-0.00017706,0.0,0 STARLINK-5953,1 56799U 23078AJ  23287.58335648 -.00017706  00000-0 -14796-2 0  9992,2 56799  70.0018  35.8499 0003154 278.7962 333.9046 14.98337266 21567,6950.17,96.107,574.228,569.843,0.0
56799.0,STARLINK-5953,PAYLOAD,2023-10-14 22:00:00,14.9834422,0.0003079,70.0016,35.0096,278.9524,331.1716,-0.0027441,-0.00032695,0.0,0 STARLINK-5953,1 56799U 23078AJ  23287.91667824 -.00032695  00000-0 -27441-2 0  9998,2 56799  70.0016  35.0096 0003079 278.9524 331.1716 14.98344220  5780,6950.149,96.106,574.154,569.874,0.0
56799.0,STARLINK-5953,PAYLOAD,2023-10-15 06:00:00,14.98316395,0.0003047,70.0019,34.1694,272.8885,334.7164,0.0047397,0.00056902,0.0,0 STARLINK-5953,1 56799U 23078AJ  23288.25001157  .00056902  00000-0  47397-2 0  9994,2 56799  70.0019  34.1694 0003047 272.8885 334.7164 14.98316395 21668,6950.235,96.108,574.218,569.982,0.0
56799.0,STARLINK-5953,PAYLOAD,2023-10-15 14:00:01,14.98354514,0.0003098,70.002,33.3289,277.6713,327.4251,-0.0031403,-0.00037387,0.0,0 STARLINK-5953,1 56799U 23078AJ  23288.58334491 -.00037387  00000-0 -31403-2 0  9999,2 56799  70.0020  33.3289 0003098 277.6713 327.4251 14.98354514  5887,6950.117,96.105,574.135,569.829,0.0
56799.0,STARLINK-5953,PAYLOAD,2023-10-15 22:00:00,14.98339051,0.000305,70.0017,32.4884,276.6142,325.9809,-0.0032604,-0.0003879,0.0,0 STARLINK-5953,1 56799U 23078AJ  23288.91667824 -.00038790  00000-0 -32604-2 0  9998,2 56799  70.0017  32.4884 0003050 276.6142 325.9809 14.98339051 21763,6950.165,96.106,574.15,569.91,0.0
56799.0,STARLINK-5953,PAYLOAD,2023-10-16 10:00:01,14.98357871,0.0003105,70.0021,31.2279,271.9749,146.8861,-0.0024243,-0.00028921,0.0,0 STARLINK-5953,1 56799U 23078AJ  23289.41668981 -.00028921  00000-0 -24243-2 0  9994,2 56799  70.0021  31.2279 0003105 271.9749 146.8861 14.98357871 21831,6950.107,96.105,574.13,569.814,0.0
56799.0,STARLINK-5953,PAYLOAD,2023-10-16 14:00:01,14.98345613,0.0003099,70.002,30.8077,275.0997,322.4558,-0.00213,-0.00025426,0.0,0 STARLINK-5953,1 56799U 23078AJ  23289.58334491 -.00025426  00000-0 -21300-2 0  9996,2 56799  70.0020  30.8077 0003099 275.0997 322.4558 14.98345613  5268,6950.145,96.106,574.163,569.856,0.0
56799.0,STARLINK-5953,PAYLOAD,2023-10-16 22:00:00,14.98339436,0.0003081,70.0016,29.9672,273.6665,321.3821,-0.0031902,-0.00037962,0.0,0 STARLINK-5953,1 56799U 23078AJ  23289.91667824 -.00037962  00000-0 -31902-2 0  9999,2 56799  70.0016  29.9672 0003081 273.6665 321.3821 14.98339436  5313,6950.164,96.106,574.17,569.887,0.0
56799.0,STARLINK-5953,PAYLOAD,2023-10-17 12:58:36,14.98332476,0.0002762,70.0005,28.3949,272.9759,87.1084,-3.3608e-06,-1.33e-06,0.0,0 STARLINK-5953,1 56799U 23078AJ  23290.54070582 -.00000133  00000-0 -33608-5 0  9997,2 56799  70.0005  28.3949 0002762 272.9759  87.1084 14.98332476 22002,6950.185,96.107,573.97,570.131,0.0
56799.0,STARLINK-5953,PAYLOAD,2023-10-18 13:00:37,14.98329901,0.0003059,69.9998,25.8692,271.4797,88.6012,3.4616e-05,3.2e-06,0.0,0 STARLINK-5953,1 56799U 23078AJ  23291.54210540  .00000320  00000-0  34616-4 0  9993,2 56799  69.9998  25.8692 0003059 271.4797  88.6012 14.98329901 22155,6950.193,96.107,574.184,569.932,0.0
56799.0,STARLINK-5953,PAYLOAD,2023-10-18 19:25:09,14.98340983,0.0003005,69.9997,25.1951,268.9738,91.1077,0.00010143,1.118e-05,0.0,0 STARLINK-5953,1 56799U 23078AJ  23291.80913570  .00001118  00000-0  10143-3 0  9999,2 56799  69.9997  25.1951 0003005 268.9738  91.1077 14.98340983 22199,6950.159,96.106,574.112,569.935,0.0
56799.0,STARLINK-5953,PAYLOAD,2023-10-18 21:01:17,14.98341777,0.0002964,69.9998,25.0264,268.4623,91.6197,0.00010279,1.134e-05,0.0,0 STARLINK-5953,1 56799U 23078AJ  23291.87589442  .00001134  00000-0  10279-3 0  9991,2 56799  69.9998  25.0264 0002964 268.4623  91.6197 14.98341777 21949,6950.156,96.106,574.081,569.961,0.0
56799.0,STARLINK-5953,PAYLOAD,2023-10-19 11:26:30,14.98337724,0.0002827,69.9999,23.512,271.8649,88.2186,7.2616e-05,7.74e-06,0.0,0 STARLINK-5953,1 56799U 23078AJ  23292.47673649  .00000774  00000-0  72616-4 0  9994,2 56799  69.9999  23.5120 0002827 271.8649  88.2186 14.98337724 22294,6950.169,96.107,573.999,570.069,0.0
56799.0,STARLINK-5953,PAYLOAD,2023-10-19 16:14:53,14.98341024,0.0002511,69.9998,23.0065,266.1802,93.907,9.7534e-05,1.071e-05,0.0,0 STARLINK-5953,1 56799U 23078AJ  23292.67701235  .00001071  00000-0  97534-4 0  9996,2 56799  69.9998  23.0065 0002511 266.1802  93.9070 14.98341024 22062,6950.159,96.106,573.769,570.279,0.0
56799.0,STARLINK-5953,PAYLOAD,2023-10-20 09:52:23,14.98325034,0.000297,69.9999,21.1567,268.152,91.9299,-8.8835e-05,-1.153e-05,0.0,0 STARLINK-5953,1 56799U 23078AJ  23293.41138704 -.00001153  00000-0 -88835-4 0  9991,2 56799  69.9999  21.1567 0002970 268.1520  91.9299 14.98325034 22432,6950.208,96.107,574.137,570.009,0.0
